$$SOE
2460147.500000000, A.D. 2023-Jul-22 00:00:00.0000, 1.509587414121536E+08, -2.770302885986024E+08, -1.588761063952662E+07,
2460154.500000000, A.D. 2023-Jul-29 00:00:00.0000, 1.613972244881763E+08, -2.695159163857260E+08, -1.497892718455406E+07,
2460161.500000000, A.D. 2023-Aug-05 00:00:00.0000, 1.715838114858619E+08, -2.615810162257001E+08, -1.404687298255837E+07,
2460168.500000000, A.D. 2023-Aug-12 00:00:00.0000, 1.814991236185409E+08, -2.532326581319652E+08, -1.309261710417841E+07,
2460175.500000000, A.D. 2023-Aug-19 00:00:00.0000, 1.911238413246606E+08, -2.444789499541582E+08, -1.211740480513965E+07,
2460182.500000000, A.D. 2023-Aug-26 00:00:00.0000, 2.004387698516194E+08, -2.353290587738138E+08, -1.112255697178099E+07,
2460189.500000000, A.D. 2023-Sep-02 00:00:00.0000, 2.094249085889075E+08, -2.257932277980724E+08, -1.010946910654508E+07,
2460196.500000000, A.D. 2023-Sep-09 00:00:00.0000, 2.180635238754044E+08, -2.158827882720366E+08, -9.079609832013413E+06,
2460203.500000000, A.D. 2023-Sep-16 00:00:00.0000, 2.263362250506206E+08, -2.056101659566864E+08, -8.034518907620803E+06,
2460210.500000000, A.D. 2023-Sep-23 00:00:00.0000, 2.342250436897515E+08, -1.949888813943662E+08, -6.975804751103342E+06,
2460217.500000000, A.D. 2023-Sep-30 00:00:00.0000, 2.417125151310121E+08, -1.840335423192780E+08, -5.905141318318956E+06,
2460224.500000000, A.D. 2023-Oct-07 00:00:00.0000, 2.487817593105488E+08, -1.727598283535071E+08, -4.824264158747762E+06,
2460231.500000000, A.D. 2023-Oct-14 00:00:00.0000, 2.554165612396731E+08, -1.611844709553515E+08, -3.734966009713419E+06,
2460238.500000000, A.D. 2023-Oct-21 00:00:00.0000, 2.616014535885028E+08, -1.493252267443459E+08, -2.639092099550560E+06,
2460245.500000000, A.D. 2023-Oct-28 00:00:00.0000, 2.673217991380471E+08, -1.372008417633121E+08, -1.538534857615352E+06,
2460252.500000000, A.D. 2023-Nov-04 00:00:00.0000, 2.725638709938500E+08, -1.248310073702474E+08, -4.352280014675483E+05,
2460259.500000000, A.D. 2023-Nov-11 00:00:00.0000, 2.773149298508320E+08, -1.122363083901439E+08, 6.688599022764489E+05,
2460266.500000000, A.D. 2023-Nov-18 00:00:00.0000, 2.815632976263153E+08, -9.943816373581970E+07, 1.771732337691113E+06,
2460273.500000000, A.D. 2023-Nov-25 00:00:00.0000, 2.852984266346762E+08, -8.645875973949710E+07, 2.871372145842761E+06,
2460280.500000000, A.D. 2023-Dec-02 00:00:00.0000, 2.885109634540673E+08, -7.332097659265856E+07, 3.965749176557891E+06,
2460287.500000000, A.D. 2023-Dec-09 00:00:00.0000, 2.911928067241800E+08, -6.004830846142008E+07, 5.052828208192486E+06,
2460294.500000000, A.D. 2023-Dec-16 00:00:00.0000, 2.933371583763454E+08, -4.666477788898139E+07, 6.130577036811696E+06,
2460301.500000000, A.D. 2023-Dec-23 00:00:00.0000, 2.949385679315035E+08, -3.319484452244400E+07, 7.196974679828877E+06,
2460308.500000000, A.D. 2023-Dec-30 00:00:00.0000, 2.959929679207237E+08, -1.966330793460382E+07, 8.250019821579396E+06,
2460315.500000000, A.D. 2024-Jan-06 00:00:00.0000, 2.964976981654529E+08, -6.095207817428856E+06, 9.287739386838932E+06,
2460322.500000000, A.D. 2024-Jan-13 00:00:00.0000, 2.964515217041454E+08, 7.484275662780486E+06, 1.030819671637023E+07,
2460329.500000000, A.D. 2024-Jan-20 00:00:00.0000, 2.958546333300600E+08, 2.104992341108555E+07, 1.130949939779777E+07,
2460336.500000000, A.D. 2024-Jan-27 00:00:00.0000, 2.947086585982032E+08, 3.457658045278520E+07, 1.228980690819440E+07,
2460343.500000000, A.D. 2024-Feb-03 00:00:00.0000, 2.930166429022008E+08, 4.803925847769736E+07, 1.324733795140045E+07,
2460350.500000000, A.D. 2024-Feb-10 00:00:00.0000, 2.907830310661350E+08, 6.141323654358551E+07, 1.418037736763050E+07,
2460357.500000000, A.D. 2024-Feb-17 00:00:00.0000, 2.880136378922572E+08, 7.467415893709132E+07, 1.508728253715851E+07,
2460364.500000000, A.D. 2024-Feb-24 00:00:00.0000, 2.847156101299552E+08, 8.779812925277981E+07, 1.596648921824672E+07,
2460371.500000000, A.D. 2024-Mar-02 00:00:00.0000, 2.808973804416233E+08, 1.007617997770686E+08, 1.681651676571881E+07,
2460378.500000000, A.D. 2024-Mar-09 00:00:00.0000, 2.765686141550244E+08, 1.135424553221815E+08, 1.763597267435051E+07,
2460385.500000000, A.D. 2024-Mar-16 00:00:00.0000, 2.717401499359213E+08, 1.261180910132247E+08, 1.842355639895827E+07,
2460392.500000000, A.D. 2024-Mar-23 00:00:00.0000, 2.664239350751069E+08, 1.384674845495596E+08, 1.917806253208748E+07,
2460399.500000000, A.D. 2024-Mar-30 00:00:00.0000, 2.606329539926323E+08, 1.505702624555837E+08, 1.989838353583734E+07,
2460406.500000000, A.D. 2024-Apr-06 00:00:00.0000, 2.543811511151869E+08, 1.624069566218378E+08, 2.058351173581963E+07,
2460413.500000000, A.D. 2024-Apr-13 00:00:00.0000, 2.476833525876541E+08, 1.739590517456157E+08, 2.123254033255343E+07,
2460420.500000000, A.D. 2024-Apr-20 00:00:00.0000, 2.405551867567265E+08, 1.852090262401672E+08, 2.184466375679496E+07,
2460427.500000000, A.D. 2024-Apr-27 00:00:00.0000, 2.330130027845252E+08, 1.961403860628736E+08, 2.241917749220394E+07,
2460434.500000000, A.D. 2024-May-04 00:00:00.0000, 2.250737883258999E+08, 2.067376908747379E+08, 2.295547733705582E+07,
2460441.500000000, A.D. 2024-May-11 00:00:00.0000, 2.167550873072478E+08, 2.169865726361992E+08, 2.345305811694039E+07,
2460448.500000000, A.D. 2024-May-18 00:00:00.0000, 2.080749186281842E+08, 2.268737469455396E+08, 2.391151188754529E+07,
2460455.500000000, A.D. 2024-May-25 00:00:00.0000, 1.990516964768821E+08, 2.363870174641345E+08, 2.433052567064495E+07,
2460462.500000000, A.D. 2024-Jun-01 00:00:00.0000, 1.897041529038639E+08, 2.455152737844006E+08, 2.470987876070528E+07,
2460469.500000000, A.D. 2024-Jun-08 00:00:00.0000, 1.800512634081902E+08, 2.542484831904547E+08, 2.504943962915418E+07,
2460476.500000000, A.D. 2024-Jun-15 00:00:00.0000, 1.701121763782193E+08, 2.625776773767825E+08, 2.534916248992676E+07,
2460483.500000000, A.D. 2024-Jun-22 00:00:00.0000, 1.599061457602988E+08, 2.704949358358699E+08, 2.560908376941818E+07,
2460490.500000000, A.D. 2024-Jun-29 00:00:00.0000, 1.494524651275020E+08, 2.779933646283349E+08, 2.582931857793462E+07,
2460497.500000000, A.D. 2024-Jul-06 00:00:00.0000, 1.387704060159073E+08, 2.850670686140428E+08, 2.601005678861344E+07,
2460504.500000000, A.D. 2024-Jul-13 00:00:00.0000, 1.278791626417224E+08, 2.917111205036044E+08, 2.615155882053815E+07,
2460511.500000000, A.D. 2024-Jul-20 00:00:00.0000, 1.167978011004501E+08, 2.979215283869229E+08, 2.625415144137159E+07,
2460518.500000000, A.D. 2024-Jul-27 00:00:00.0000, 1.055452124166807E+08, 3.036952012728100E+08, 2.631822360868999E+07,
2460525.500000000, A.D. 2024-Aug-03 00:00:00.0000, 9.414006969376878E+07, 3.090299127366984E+08, 2.634422232898982E+07,
2460532.500000000, A.D. 2024-Aug-10 00:00:00.0000, 8.260078946217752E+07, 3.139242631148959E+08, 2.633264854989442E+07,
2460539.500000000, A.D. 2024-Aug-17 00:00:00.0000, 7.094549716876650E+07, 3.183776406774069E+08, 2.628405311042717E+07,
2460546.500000000, A.D. 2024-Aug-24 00:00:00.0000, 5.919199669754797E+07, 3.223901821328371E+08, 2.619903276877056E+07,
2460553.500000000, A.D. 2024-Aug-31 00:00:00.0000, 4.735774387356216E+07, 3.259627327442037E+08, 2.607822631218661E+07,
2460560.500000000, A.D. 2024-Sep-07 00:00:00.0000, 3.545982412993857E+07, 3.290968064875223E+08, 2.592231074298896E+07,
2460567.500000000, A.D. 2024-Sep-14 00:00:00.0000, 2.351493422283710E+07, 3.317945475224863E+08, 2.573199762827814E+07,
2460574.500000000, A.D. 2024-Sep-21 00:00:00.0000, 1.153936575865768E+07, 3.340586936252451E+08, 2.550802984370795E+07,
2460581.500000000, A.D. 2024-Sep-28 00:00:00.0000, -4.510101714584117E+05, 3.358925385472977E+08, 2.525117849923499E+07,
2460588.500000000, A.D. 2024-Oct-05 00:00:00.0000, -1.244075381074864E+07, 3.372998934738981E+08, 2.496223971716148E+07,
2460595.500000000, A.D. 2024-Oct-12 00:00:00.0000, -2.441486359012168E+07, 3.382850507162621E+08, 2.464203154347324E+07,
2460602.500000000, A.D. 2024-Oct-19 00:00:00.0000, -3.635878098104005E+07, 3.388527494817926E+08, 2.429139113194802E+07,
2460609.500000000, A.D. 2024-Oct-26 00:00:00.0000, -4.825839359477840E+07, 3.390081430094002E+08, 2.391117213823704E+07,
2460616.500000000, A.D. 2024-Nov-02 00:00:00.0000, -6.010003647875421E+07, 3.387567669906530E+08, 2.350224228677623E+07,
2460623.500000000, A.D. 2024-Nov-09 00:00:00.0000, -7.187049171249434E+07, 3.381045093474370E+08, 2.306548110070069E+07,
2460630.500000000, A.D. 2024-Nov-16 00:00:00.0000, -8.355698646689820E+07, 3.370575813985652E+08, 2.260177778868680E+07,
2460637.500000000, A.D. 2024-Nov-23 00:00:00.0000, -9.514718965926027E+07, 3.356224903817762E+08, 2.211202927575834E+07,
2460644.500000000, A.D. 2024-Nov-30 00:00:00.0000, -1.066292071646597E+08, 3.338060132909241E+08, 2.159713835023206E+07,
2460651.500000000, A.D. 2024-Dec-07 00:00:00.0000, -1.179915753230173E+08, 3.316151724399050E+08, 2.105801191703460E+07,
2460658.500000000, A.D. 2024-Dec-14 00:00:00.0000, -1.292232535792960E+08, 3.290572139609216E+08, 2.049555951461755E+07,
2460665.500000000, A.D. 2024-Dec-21 00:00:00.0000, -1.403136187095742E+08, 3.261395879736870E+08, 1.991069220017737E+07,
2460672.500000000, A.D. 2024-Dec-28 00:00:00.0000, -1.512524587795861E+08, 3.228699274185547E+08, 1.930432137278447E+07,
2460679.500000000, A.D. 2025-Jan-04 00:00:00.0000, -1.620299643563955E+08, 3.192560278842527E+08, 1.867735748409164E+07,
2460686.500000000, A.D. 2025-Jan-11 00:00:00.0000, -1.726367189016896E+08, 3.153058300522501E+08, 1.803070893274412E+07,
2460693.500000000, A.D. 2025-Jan-18 00:00:00.0000, -1.830636893539934E+08, 3.110274037926008E+08, 1.736528114433832E+07,
2460700.500000000, A.D. 2025-Jan-25 00:00:00.0000, -1.933022167390904E+08, 3.064289333823425E+08, 1.668197576881371E+07,
2460707.500000000, A.D. 2025-Feb-01 00:00:00.0000, -2.033440066960118E+08, 3.015187037608399E+08, 1.598168996876585E+07,
2460714.500000000, A.D. 2025-Feb-08 00:00:00.0000, -2.131811199299000E+08, 2.963050877869928E+08, 1.526531578861980E+07,
$$EOE